OBJECT_NAME,OBJECT_ID,EPOCH,MEAN_MOTION,ECCENTRICITY,INCLINATION,RA_OF_ASC_NODE,ARG_OF_PERICENTER,MEAN_ANOMALY,EPHEMERIS_TYPE,CLASSIFICATION_TYPE,NORAD_CAT_ID,ELEMENT_SET_NO,REV_AT_EPOCH,BSTAR,MEAN_MOTION_DOT,MEAN_MOTION_DDOT
DMSP 5D-3 F16 (USA 172),2003-048A,2026-07-22T21:33:44.180064,14.14484926,.00079092,98.9887,227.9617,52.2619,69.4744,0,U,28054,999,17453,.14096554E-4,-.18E-6,0
METEOSAT-9 (MSG-2),2005-049B,2026-07-22T16:40:16.706784,1.00276413,.00024972,9.4395,53.8119,0.9347,181.4776,0,U,28912,999,735,0,.12E-5,0
DMSP 5D-3 F17 (USA 191),2006-050A,2026-07-22T22:47:21.249600,14.14996720,.00092989,98.7391,209.7897,319.4411,40.6069,0,U,29522,999,1748,.31578487E-4,.18E-6,0
FENGYUN 3A,2008-026A,2026-07-22T13:42:09.084672,14.19577609,.00093632,98.6886,143.7435,32.4409,327.7342,0,U,32958,999,94042,.43355412E-4,.48E-6,0
EWS-G3 (GOES 14),2009-033A,2026-07-22T22:09:31.708224,1.00094772,.00022333,1.7793,82.5995,39.4726,271.1668,0,U,35491,999,694,0,-.356E-5,0
DMSP 5D-3 F18 (USA 210),2009-057A,2026-07-22T22:09:19.526688,14.14915400,.00116479,98.9063,184.6193,144.3614,215.8339,0,U,35951,999,86464,.14072855E-3,.227E-5,0
EWS-G2 (GOES 15),2010-008A,2026-07-22T22:43:25.374144,1.00272247,.00056347,1.3739,82.3732,52.5640,209.8467,0,U,36411,999,5999,0,.25E-6,0
COMS 1,2010-032A,2026-07-22T11:00:14.468256,0.99166246,.00115159,4.8933,74.9302,15.3115,308.1968,0,U,36744,999,5143,0,-.155E-5,0
FENGYUN 3B,2010-059A,2026-07-22T22:59:00.380256,14.14846554,.00232639,98.9604,250.1199,85.7782,35.2058,0,U,37214,999,81248,-.17973685E-3,-.393E-5,0
SUOMI NPP,2011-061A,2026-07-22T22:27:43.926912,14.19523835,.00011513,98.7956,144.5692,181.6095,178.5078,0,U,37849,999,76351,.4766922E-4,.56E-6,0
METEOSAT-10 (MSG-3),2012-035B,2026-07-22T18:10:00.194016,1.00273198,.00014991,4.7535,60.8424,20.0765,132.1319,0,U,38552,999,5121,0,-.7E-7,0
METOP-B,2012-049A,2026-07-22T21:03:58.509792,14.21447891,.00014072,98.6484,254.6612,216.1562,143.9520,0,U,38771,999,71833,.48885611E-4,.64E-6,0
INSAT-3D,2013-038B,2026-07-22T22:12:08.956224,1.00272852,.00011375,2.0158,82.0895,43.8435,277.2757,0,U,39216,999,4743,0,-.337E-5,0
FENGYUN 3C,2013-052A,2026-07-22T22:42:02.327328,14.15762078,.00134545,98.5006,176.1838,281.8423,78.1243,0,U,39260,999,66362,.54445573E-4,.65E-6,0
METEOR-M 2,2014-037A,2026-07-22T21:41:11.985216,14.21471212,.00047137,98.5144,178.3817,300.4254,59.6458,0,U,40069,999,62439,.89861341E-4,.154E-5,0
HIMAWARI-8,2014-060A,2026-07-22T22:15:16.157376,1.00270763,.00013685,0.0396,267.9566,248.8349,258.3387,0,U,40267,999,4311,0,-.272E-5,0
FENGYUN 2G,2014-090A,2026-07-22T20:42:21.720960,1.00278395,.00037019,5.7269,72.3819,171.2321,107.1134,0,U,40367,999,4235,0,-.303E-5,0
METEOSAT-11 (MSG-4),2015-034A,2026-07-22T21:37:49.747008,1.00274266,.00019664,3.2876,70.8766,355.6260,207.8813,0,U,40732,999,757,0,.64E-6,0
ELEKTRO-L 2,2015-074A,2026-07-22T23:13:39.659232,1.00272653,.00006504,6.7817,70.0808,230.5554,334.0031,0,U,41105,999,3886,0,-.119E-5,0
SENTINEL-3A,2016-011A,2026-07-22T21:54:12.540960,14.26735830,.00012997,98.6231,270.7797,87.0308,273.1021,0,U,41335,999,54315,.43919799E-4,.63E-6,0
INSAT-3DR,2016-054A,2026-07-22T21:16:38.931744,1.00271748,.00102641,0.0886,89.0015,180.3289,64.4397,0,U,41752,999,3617,0,-.73E-6,0
HIMAWARI-9,2016-064A,2026-07-22T22:15:23.644800,1.00271775,.00024171,0.0142,49.8368,124.5286,240.9039,0,U,41836,999,3556,0,0,0
GOES 16,2016-071A,2026-07-22T21:05:22.334208,1.00271893,.00007368,0.4229,85.4285,70.1213,356.7093,0,U,41866,999,3546,0,-.87E-6,0
FENGYUN 4A,2016-077A,2026-07-22T22:10:31.611936,1.00264933,.00080558,2.4110,79.8746,158.8590,158.1683,0,U,41882,999,3528,0,-.355E-5,0
CYGFM05,2016-078A,2026-07-22T21:11:24.039168,15.58145909,.00052669,34.9577,23.9441,122.5417,237.5817,0,U,41884,999,53432,.37636089E-3,.29391E-3,0
CYGFM04,2016-078B,2026-07-22T17:41:36.468960,15.63455104,.00044722,34.9331,350.7302,171.2900,188.7904,0,U,41885,999,53456,.36253881E-3,.34779E-3,0
CYGFM02,2016-078C,2026-07-22T19:02:18.563424,15.66818040,.00051462,34.9411,343.7857,172.8002,187.2800,0,U,41886,999,53475,.37784478E-3,.4152E-3,0
CYGFM01,2016-078D,2026-07-22T20:31:51.968640,15.58874163,.00051222,34.9407,24.8843,114.9529,245.1729,0,U,41887,999,53427,.37581147E-3,.30173E-3,0
CYGFM08,2016-078E,2026-07-22T19:33:16.709472,15.61809306,.00061254,34.9440,3.7491,153.0035,207.1010,0,U,41888,999,53454,.37190773E-3,.33456E-3,0
CYGFM07,2016-078G,2026-07-22T18:31:02.912736,15.61915340,.00049192,34.9457,352.3471,170.5432,189.5387,0,U,41890,999,53456,.35825198E-3,.32344E-3,0
CYGFM03,2016-078H,2026-07-22T17:49:40.859328,15.61898063,.00044811,34.9411,354.4666,153.6024,206.4930,0,U,41891,999,53453,.35938205E-3,.32421E-3,0
